{"type": "FeatureCollection", "features": [ {"type": "Feature", "properties": {"norad_id": 32289, "name": "YAOGAN-3", "group": "resource", "lat": 67.12637320971994, "lon": -146.0195006504808, "alt_km": 591.0811299480265, "timestamp": "2025-12-14T07:33:19.134475+00:00", "meta": {"OBJECT_NAME": "YAOGAN-3", "OBJECT_ID": "2007-055A", "EPOCH": "2025-12-13T16:32:59.355168", "MEAN_MOTION": 14.89866614, "ECCENTRICITY": 0.00012616, "INCLINATION": 97.8368, "RA_OF_ASC_NODE": 14.306, "ARG_OF_PERICENTER": 78.5211, "MEAN_ANOMALY": 281.6149, "EPHEMERIS_TYPE": 0, "CLASSIFICATION_TYPE": "U", "NORAD_CAT_ID": 32289, "ELEMENT_SET_NO": 999, "REV_AT_EPOCH": 97823, "BSTAR": 0.00049922217, "MEAN_MOTION_DOT": 4.744e-05, "MEAN_MOTION_DDOT": 0}, "tle": {"line1": "1 32289U 07055A   25347.68957587  .00004744  00000+0  49922-3 0  9994", "line2": "2 32289  97.8368  14.3060 0001261  78.5211 281.6149 14.89866614978238"}}, "geometry": {"type": "Point", "coordinates": [-146.0195006504808, 67.12637320971994]}}, {"type": "Feature", "properties": {"norad_id": 32376, "name": "COSMO-SKYMED 2", "group": "resource", "lat": -12.996943801561827, "lon": 171.44685467470123, "alt_km": 627.1250192473917, "timestamp": "2025-12-14T07:33:19.134501+00:00", "meta": {"OBJECT_NAME": "COSMO-SKYMED 2", "OBJECT_ID": "2007-059A", "EPOCH": "2025-12-13T15:24:43.191648", "MEAN_MOTION": 14.82167859, "ECCENTRICITY": 0.00014984, "INCLINATION": 97.8811, "RA_OF_ASC_NODE": 168.9524, "ARG_OF_PERICENTER": 84.1298, "MEAN_ANOMALY": 276.0086, "EPHEMERIS_TYPE": 0, "CLASSIFICATION_TYPE": "U", "NORAD_CAT_ID": 32376, "ELEMENT_SET_NO": 999, "REV_AT_EPOCH": 97451, "BSTAR": 0.00011139453, "MEAN_MOTION_DOT": 8.35e-06, "MEAN_MOTION_DDOT": 0}, "tle": {"line1": "1 32376U 07059A   25347.64216657  .00000835  00000+0  11139-3 0  9993", "line2": "2 32376  97.8811 168.9524 0001498  84.1298 276.0086 14.82167859974512"}}, "geometry": {"type": "Point", "coordinates": [171.44685467470123, -12.996943801561827]}}, {"type": "Feature", "properties": {"norad_id": 32382, "name": "RADARSAT-2", "group": "resource", "lat": 0.3816136693322905, "lon": -7.17559163910214, "alt_km": 794.5744412379463, "timestamp": "2025-12-14T07:33:19.134515+00:00", "meta": {"OBJECT_NAME": "RADARSAT-2", "OBJECT_ID": "2007-061A", "EPOCH": "2025-12-13T14:45:37.825632", "MEAN_MOTION": 14.29982385, "ECCENTRICITY": 0.00011214, "INCLINATION": 98.5803, "RA_OF_ASC_NODE": 352.1924, "ARG_OF_PERICENTER": 85.6821, "MEAN_ANOMALY": 274.449, "EPHEMERIS_TYPE": 0, "CLASSIFICATION_TYPE": "U", "NORAD_CAT_ID": 32382, "ELEMENT_SET_NO": 999, "REV_AT_EPOCH": 93943, "BSTAR": 9.7682157e-05, "MEAN_MOTION_DOT": 2.08e-06, "MEAN_MOTION_DDOT": 0}, "tle": {"line1": "1 32382U 07061A   25347.61502113  .00000208  00000+0  97682-4 0  9997", "line2": "2 32382  98.5803 352.1924 0001121  85.6821 274.4490 14.29982385939433"}}, "geometry": {"type": "Point", "coordinates": [-7.17559163910214, 0.3816136693322905]}}, {"type": "Feature", "properties": {"norad_id": 32783, "name": "CARTOSAT-2A", "group": "resource", "lat": 69.9133226363252, "lon": -119.917183628842, "alt_km": 628.5655369769938, "timestamp": "2025-12-14T07:33:19.134527+00:00", "meta": {"OBJECT_NAME": "CARTOSAT-2A", "OBJECT_ID": "2008-021A", "EPOCH": "2025-12-13T16:27:10.617120", "MEAN_MOTION": 14.78939786, "ECCENTRICITY": 0.00117981, "INCLINATION": 97.7931, "RA_OF_ASC_NODE": 37.4792, "ARG_OF_PERICENTER": 1.7064, "MEAN_ANOMALY": 358.4186, "EPHEMERIS_TYPE": 0, "CLASSIFICATION_TYPE": "U", "NORAD_CAT_ID": 32783, "ELEMENT_SET_NO": 999, "REV_AT_EPOCH": 95138, "BSTAR": 0.00016996148, "MEAN_MOTION_DOT": 1.205e-05, "MEAN_MOTION_DDOT": 0}, "tle": {"line1": "1 32783U 08021A   25347.68553955  .00001205  00000+0  16996-3 0  9992", "line2": "2 32783  97.7931  37.4792 0011798   1.7064 358.4186 14.78939786951380"}}, "geometry": {"type": "Point", "coordinates": [-119.917183628842, 69.9133226363252]}}, {"type": "Feature", "properties": {"norad_id": 33320, "name": "HUANJING 1A (HJ-1A)", "group": "resource", "lat": -1.2225487040071656, "lon": -23.28807190148004, "alt_km": 609.6934328857651, "timestamp": "2025-12-14T07:33:19.134539+00:00", "meta": {"OBJECT_NAME": "HUANJING 1A (HJ-1A)", "OBJECT_ID": "2008-041A", "EPOCH": "2025-12-13T15:22:18.642720", "MEAN_MOTION": 14.8339626, "ECCENTRICITY": 0.00200551, "INCLINATION": 97.6542, "RA_OF_ASC_NODE": 335.9013, "ARG_OF_PERICENTER": 31.4618, "MEAN_ANOMALY": 328.7792, "EPHEMERIS_TYPE": 0, "CLASSIFICATION_TYPE": "U", "NORAD_CAT_ID": 33320, "ELEMENT_SET_NO": 999, "REV_AT_EPOCH": 93089, "BSTAR": 0.00014609116, "MEAN_MOTION_DOT": 1.151e-05, "MEAN_MOTION_DDOT": 0}, "tle": {"line1": "1 33320U 08041A   25347.64049355  .00001151  00000+0  14609-3 0  9991", "line2": "2 33320  97.6542 335.9013 0020055  31.4618 328.7792 14.83396260930894"}}, "geometry": {"type": "Point", "coordinates": [-23.28807190148004, -1.2225487040071656]}}, {"type": "Feature", "properties": {"norad_id": 33321, "name": "HUANJING 1B (HJ-1B)", "group": "resource", "lat": -36.818728368807086, "lon": 154.47322622955755, "alt_km": 649.0366953978046, "timestamp": "2025-12-14T07:33:19.134550+00:00", "meta": {"OBJECT_NAME": "HUANJING 1B (HJ-1B)", "OBJECT_ID": "2008-041B", "EPOCH": "2025-12-13T16:00:23.082912", "MEAN_MOTION": 14.8282418, "ECCENTRICITY": 0.00381694, "INCLINATION": 97.6402, "RA_OF_ASC_NODE": 339.6213, "ARG_OF_PERICENTER": 72.7957, "MEAN_ANOMALY": 287.743, "EPHEMERIS_TYPE": 0, "CLASSIFICATION_TYPE": "U", "NORAD_CAT_ID": 33321, "ELEMENT_SET_NO": 999, "REV_AT_EPOCH": 93091, "BSTAR": 0.0002217956, "MEAN_MOTION_DOT": 1.766e-05, "MEAN_MOTION_DDOT": 0}, "tle": {"line1": "1 33321U 08041B   25347.66693383  .00001766  00000+0  22180-3 0  9995", "line2": "2 33321  97.6402 339.6213 0038169  72.7957 287.7430 14.82824180930914"}}, "geometry": {"type": "Point", "coordinates": [154.47322622955755, -36.818728368807086]}}, {"type": "Feature", "properties": {"norad_id": 33331, "name": "GEOEYE 1", "group": "resource", "lat": 76.21275184202129, "lon": -84.81878122765016, "alt_km": 672.3400581386222, "timestamp": "2025-12-14T07:33:19.134561+00:00", "meta": {"OBJECT_NAME": "GEOEYE 1", "OBJECT_ID": "2008-042A", "EPOCH": "2025-12-13T16:20:25.293120", "MEAN_MOTION": 14.64814494, "ECCENTRICITY": 0.00027227, "INCLINATION": 98.1252, "RA_OF_ASC_NODE": 58.9498, "ARG_OF_PERICENTER": 271.8673, "MEAN_ANOMALY": 88.2218, "EPHEMERIS_TYPE": 0, "CLASSIFICATION_TYPE": "U", "NORAD_CAT_ID": 33331, "ELEMENT_SET_NO": 999, "REV_AT_EPOCH": 92299, "BSTAR": 0.00017623615, "MEAN_MOTION_DOT": 8.93e-06, "MEAN_MOTION_DDOT": 0}, "tle": {"line1": "1 33331U 08042A   25347.68084830  .00000893  00000+0  17624-3 0  9997", "line2": "2 33331  98.1252  58.9498 0002722 271.8673  88.2218 14.64814494922997"}}, "geometry": {"type": "Point", "coordinates": [-84.81878122765016, 76.21275184202129]}}, {"type": "Feature", "properties": {"norad_id": 33396, "name": "THEOS", "group": "resource", "lat": 63.40456962705185, "lon": 28.792853001015867, "alt_km": 818.0757566326583, "timestamp": "2025-12-14T07:33:19.134573+00:00", "meta": {"OBJECT_NAME": "THEOS", "OBJECT_ID": "2008-049A", "EPOCH": "2025-12-13T16:01:57.982944", "MEAN_MOTION": 14.20096163, "ECCENTRICITY": 0.00011806, "INCLINATION": 98.5865, "RA_OF_ASC_NODE": 45.7299, "ARG_OF_PERICENTER": 96.1394, "MEAN_ANOMALY": 263.9918, "EPHEMERIS_TYPE": 0, "CLASSIFICATION_TYPE": "U", "NORAD_CAT_ID": 33396, "ELEMENT_SET_NO": 999, "REV_AT_EPOCH": 89163, "BSTAR": 2.2289911e-05, "MEAN_MOTION_DOT": 5e-08, "MEAN_MOTION_DDOT": 0}, "tle": {"line1": "1 33396U 08049A   25347.66803221  .00000005  00000+0  22290-4 0  9997", "line2": "2 33396  98.5865  45.7299 0001180  96.1394 263.9918 14.20096163891632"}}, "geometry": {"type": "Point", "coordinates": [28.792853001015867, 63.40456962705185]}}, {"type": "Feature", "properties": {"norad_id": 33412, "name": "COSMO-SKYMED 3", "group": "resource", "lat": -80.68218238539858, "lon": -104.06479528188346, "alt_km": 560.8934102528865, "timestamp": "2025-12-14T07:33:19.134584+00:00", "meta": {"OBJECT_NAME": "COSMO-SKYMED 3", "OBJECT_ID": "2008-054A", "EPOCH": "2025-12-13T15:58:49.536768", "MEAN_MOTION": 15.05370649, "ECCENTRICITY": 0.0016155, "INCLINATION": 97.8474, "RA_OF_ASC_NODE": 198.0727, "ARG_OF_PERICENTER": 170.5532, "MEAN_ANOMALY": 189.6001, "EPHEMERIS_TYPE": 0, "CLASSIFICATION_TYPE": "U", "NORAD_CAT_ID": 33412, "ELEMENT_SET_NO": 999, "REV_AT_EPOCH": 92901, "BSTAR": 0.00043181449, "MEAN_MOTION_DOT": 6.142e-05, "MEAN_MOTION_DDOT": 0}, "tle": {"line1": "1 33412U 08054A   25347.66585112  .00006142  00000+0  43181-3 0  9997", "line2": "2 33412  97.8474 198.0727 0016155 170.5532 189.6001 15.05370649929015"}}, "geometry": {"type": "Point", "coordinates": [-104.06479528188346, -80.68218238539858]}}, {"type": "Feature", "properties": {"norad_id": 33446, "name": "YAOGAN-4", "group": "resource", "lat": 51.460286999763916, "lon": 108.46091901282917, "alt_km": 625.4046100389914, "timestamp": "2025-12-14T07:33:19.134595+00:00", "meta": {"OBJECT_NAME": "YAOGAN-4", "OBJECT_ID": "2008-061A", "EPOCH": "2025-12-13T16:24:13.135968", "MEAN_MOTION": 14.82686837, "ECCENTRICITY": 0.00135092, "INCLINATION": 97.918, "RA_OF_ASC_NODE": 277.7736, "ARG_OF_PERICENTER": 320.0535, "MEAN_ANOMALY": 39.9683, "EPHEMERIS_TYPE": 0, "CLASSIFICATION_TYPE": "U", "NORAD_CAT_ID": 33446, "ELEMENT_SET_NO": 999, "REV_AT_EPOCH": 91817, "BSTAR": 0.00027788174, "MEAN_MOTION_DOT": 2.191e-05, "MEAN_MOTION_DDOT": 0}, "tle": {"line1": "1 33446U 08061A   25347.68348537  .00002191  00000+0  27788-3 0  9997", "line2": "2 33446  97.9180 277.7736 0013509 320.0535  39.9683 14.82686837918178"}}, "geometry": {"type": "Point", "coordinates": [108.46091901282917, 51.460286999763916]}}]}